NORAD_CAT_ID,OBJECT_NAME,OBJECT_TYPE,EPOCH,MEAN_MOTION,ECCENTRICITY,INCLINATION,RA_OF_ASC_NODE,ARG_OF_PERICENTER,MEAN_ANOMALY,BSTAR,MEAN_MOTION_DOT,MEAN_MOTION_DDOT,TLE_LINE0,TLE_LINE1,TLE_LINE2,SEMIMAJOR_AXIS,PERIOD,APOGEE,PERIGEE,DECAYED
51134.0,STARLINK-3183,PAYLOAD,2022-09-28 17:38:05,15.08847417,0.0001938,53.2176,176.2896,49.0648,311.0512,0.00013458,1.855e-05,0.0,0 STARLINK-3183,1 51134U 22005AG  22271.73478015  .00001855  00000-0  13458-3 0  9995,2 51134  53.2176 176.2896 0001938  49.0648 311.0512 15.08847417 40081,6917.858,95.437,541.063,538.382,0.0
51134.0,STARLINK-3183,PAYLOAD,2022-09-29 03:10:25,15.08830935,0.0001761999999999,53.2177,174.5052,44.8941,315.2193,-5.4473e-06,-3.75e-06,0.0,0 STARLINK-3183,1 51134U 22005AG  22272.13223481 -.00000375  00000-0 -54473-5 0  9997,2 51134  53.2177 174.5052 0001762  44.8941 315.2193 15.08830935 40146,6917.908,95.438,540.992,538.554,0.0
51134.0,STARLINK-3183,PAYLOAD,2022-09-29 11:07:21,15.088236800000002,0.0001726,53.2175,173.0183,45.6937,314.4197,-0.00011137,-2.059e-05,0.0,0 STARLINK-3183,1 51134U 22005AG  22272.46344489 -.00002059  00000-0 -11137-3 0  9994,2 51134  53.2175 173.0183 0001726  45.6937 314.4197 15.08823680 40196,6917.93,95.439,540.989,538.601,0.0
51134.0,STARLINK-3183,PAYLOAD,2022-09-29 12:42:44,15.08826115,0.0001744,53.2175,172.7209,44.2288,315.8844,-0.00011279,-2.082e-05,0.0,0 STARLINK-3183,1 51134U 22005AG  22272.52968379 -.00002082  00000-0 -11279-3 0  9994,2 51134  53.2175 172.7209 0001744  44.2288 315.8844 15.08826115 39092,6917.9230000000025,95.438,540.994,538.581,0.0
51134.0,STARLINK-3183,PAYLOAD,2022-09-29 19:04:16,15.0883261,0.0001736,53.2173,171.5313,48.3356,311.7785,-0.00010038,-1.885e-05,0.0,0 STARLINK-3183,1 51134U 22005AG  22272.79464018 -.00001885  00000-0 -10038-3 0  9996,2 51134  53.2173 171.5313 0001736  48.3356 311.7785 15.08832610 40240,6917.903,95.438,540.969,538.567,0.0
51134.0,STARLINK-3183,PAYLOAD,2022-09-30 03:01:12,15.08841764,0.0001821999999999,53.2175,170.0449,44.4561,315.6577,-0.00010327,-1.931e-05,0.0,0 STARLINK-3183,1 51134U 22005AG  22273.12583547 -.00001931  00000-0 -10327-3 0  9996,2 51134  53.2175 170.0449 0001822  44.4561 315.6577 15.08841764 40294,6917.875,95.437,541.0,538.48,0.0
51134.0,STARLINK-3183,PAYLOAD,2022-09-30 07:47:21,15.08848321,0.0001798,53.2175,169.1528,45.6817,314.4322,-8.5377e-05,-1.647e-05,0.0,0 STARLINK-3183,1 51134U 22005AG  22273.32455025 -.00001647  00000-0 -85377-4 0  9999,2 51134  53.2175 169.1528 0001798  45.6817 314.4322 15.08848321 40325,6917.855,95.437,540.964,538.476,0.0
51134.0,STARLINK-3183,PAYLOAD,2022-10-01 02:51:58,15.08844082,0.0001735,53.2175,165.5847,41.1627,318.9496,0.00011557,1.552e-05,0.0,0 STARLINK-3183,1 51134U 22005AG  22274.11942454  .00001552  00000-0  11557-3 0  9995,2 51134  53.2175 165.5847 0001735  41.1627 318.9496 15.08844082 39330,6917.868,95.437,540.933,538.533,0.0
51134.0,STARLINK-3183,PAYLOAD,2022-10-01 20:21:13,15.08839811,0.0001779,53.2175,162.3141,41.3139,318.7988,0.00018809,2.707e-05,0.0,0 STARLINK-3183,1 51134U 22005AG  22274.84806730  .00002707  00000-0  18809-3 0  9991,2 51134  53.2175 162.3141 0001779  41.3139 318.7988 15.08839811 39440,6917.880999999999,95.438,540.977,538.515,0.0
51134.0,STARLINK-3183,PAYLOAD,2022-10-02 02:42:46,15.0882946,0.0001831,53.2175,161.1245,40.9874,319.1256,5.8483e-05,6.43e-06,0.0,0 STARLINK-3183,1 51134U 22005AG  22275.11303813  .00000643  00000-0  58483-4 0  9996,2 51134  53.2175 161.1245 0001831  40.9874 319.1256 15.08829460 40592,6917.913000000001,95.438,541.044,538.511,0.0
51134.0,STARLINK-3183,PAYLOAD,2022-10-02 09:04:19,15.08822601,0.0001861,53.2176,159.9345,40.9981,319.1151,-4.4081e-05,-9.89e-06,0.0,0 STARLINK-3183,1 51134U 22005AG  22275.37800660 -.00000989  00000-0 -44081-4 0  9990,2 51134  53.2176 159.9345 0001861  40.9981 319.1151 15.08822601 40630,6917.934,95.439,541.086,538.511,0.0
51134.0,STARLINK-3183,PAYLOAD,2022-10-02 18:36:38,15.08832371,0.0001865999999999,53.2171,158.1505,42.6956,317.4181,-0.00010363,-1.937e-05,0.0,0 STARLINK-3183,1 51134U 22005AG  22275.77544398 -.00001937  00000-0 -10363-3 0  9996,2 51134  53.2171 158.1505 0001866  42.6956 317.4181 15.08832371 40695,6917.904,95.438,541.06,538.4780000000002,0.0
51134.0,STARLINK-3183,PAYLOAD,2022-10-02 20:12:01,15.08830668,0.0001892,53.2174,157.8531,43.8461,316.2681,-5.3801e-05,-1.144e-05,0.0,0 STARLINK-3183,1 51134U 22005AG  22275.84168360 -.00001144  00000-0 -53801-4 0  9990,2 51134  53.2174 157.8531 0001892  43.8461 316.2681 15.08830668 39592,6917.909000000002,95.438,541.0830000000002,538.465,0.0
51134.0,STARLINK-3183,PAYLOAD,2022-10-03 00:58:10,15.08837042,0.0001889999999999,53.2175,156.9613,43.3159,316.7982,-3.3976e-06,-3.42e-06,0.0,0 STARLINK-3183,1 51134U 22005AG  22276.04039883 -.00000342  00000-0 -33976-5 0  9991,2 51134  53.2175 156.9613 0001890  43.3159 316.7982 15.08837042 40731,6917.889,95.438,541.062,538.447,0.0
51134.0,STARLINK-3183,PAYLOAD,2022-10-03 18:27:23,15.08847546,0.0001926,53.2175,153.6905,42.7062,317.4079,0.00024184,3.564e-05,0.0,0 STARLINK-3183,1 51134U 22005AG  22276.76902135  .00003564  00000-0  24184-3 0  9995,2 51134  53.2175 153.6905 0001926  42.7062 317.4079 15.08847546 40842,6917.857,95.437,541.055,538.39,0.0
51134.0,STARLINK-3183,PAYLOAD,2022-10-04 00:48:56,15.08853019,0.0001789,53.2173,152.5006,38.1647,321.9471,9.6626e-05,1.251e-05,0.0,0 STARLINK-3183,1 51134U 22005AG  22277.03398183  .00001251  00000-0  96626-4 0  9990,2 51134  53.2173 152.5006 0001789  38.1647 321.9471 15.08853019 39773,6917.840999999999,95.437,540.943,538.4680000000002,0.0
51134.0,STARLINK-3183,PAYLOAD,2022-10-04 23:04:21,15.08835655,0.0001804,53.2175,148.3382,43.5137,316.5997,7.7608e-05,9.47e-06,0.0,0 STARLINK-3183,1 51134U 22005AG  22277.96135522  .00000947  00000-0  77608-4 0  9998,2 51134  53.2175 148.3382 0001804  43.5137 316.5997 15.08835655 41027,6917.894,95.438,541.007,538.511,0.0
51134.0,STARLINK-3183,PAYLOAD,2022-10-05 08:36:40,15.08834664,0.0001867,53.2175,146.5542,42.6118,317.5019,1.462e-05,-5.5e-07,0.0,0 STARLINK-3183,1 51134U 22005AG  22278.35879824 -.00000055  00000-0  14620-4 0  9998,2 51134  53.2175 146.5542 0001867  42.6118 317.5019 15.08834664 39979,6917.897,95.438,541.053,538.47,0.0
51134.0,STARLINK-3183,PAYLOAD,2022-10-05 21:19:45,15.08837962,0.0001865,53.2175,144.1753,42.414,317.6996,-5.486600000000001e-05,-1.161e-05,0.0,0 STARLINK-3183,1 51134U 22005AG  22278.88871794 -.00001161  00000-0 -54866-4 0  9990,2 51134  53.2175 144.1753 0001865  42.4140 317.6996 15.08837962 40058,6917.887,95.438,541.0419999999998,538.461,0.0
51134.0,STARLINK-3183,PAYLOAD,2022-10-06 00:30:31,15.08841854,0.0001648,53.2172,143.5786,45.6569,314.4558,-4.5054e-05,-1.005e-05,0.0,0 STARLINK-3183,1 51134U 22005AG  22279.02119450 -.00001005  00000-0 -45054-4 0  9997,2 51134  53.2172 143.5786 0001648  45.6569 314.4558 15.08841854 41182,6917.875,95.437,540.88,538.6,0.0
51134.0,STARLINK-3183,PAYLOAD,2022-10-06 08:27:26,15.08849524,0.0001629,53.2173,142.0924,44.62600000000001,315.4863,1.6065e-05,-3.2e-07,0.0,0 STARLINK-3183,1 51134U 22005AG  22279.35238718 -.00000032  00000-0  16065-4 0  9990,2 51134  53.2173 142.0924 0001629  44.6260 315.4863 15.08849524 40122,6917.851,95.437,540.8430000000002,538.589,0.0
51134.0,STARLINK-3183,PAYLOAD,2022-10-06 21:10:31,15.08840375,0.0002114,53.2174,139.7162,44.9973,315.119,0.00010167,1.33e-05,0.0,0 STARLINK-3183,1 51134U 22005AG  22279.88231123  .00001330  00000-0  10167-3 0  9998,2 51134  53.2174 139.7162 0002114  44.9973 315.1190 15.08840375 40208,6917.879,95.438,541.207,538.2819999999998,0.0
51134.0,STARLINK-3183,PAYLOAD,2022-10-07 00:21:18,15.08831342,0.0001988,53.2178,139.1198,42.7122,317.4024,3.7016e-05,3.01e-06,0.0,0 STARLINK-3183,1 51134U 22005AG  22280.01479884  .00000301  00000-0  37016-4 0  9993,2 51134  53.2178 139.1198 0001988  42.7122 317.4024 15.08831342 40222,6917.906999999997,95.438,541.1469999999998,538.3969999999998,0.0
51134.0,STARLINK-3183,PAYLOAD,2022-10-07 21:01:19,15.08838256,0.0002032,53.2174,135.2545,42.4156,317.6993,9.4455e-05,1.215e-05,0.0,0 STARLINK-3183,1 51134U 22005AG  22280.87591533  .00001215  00000-0  94455-4 0  9998,2 51134  53.2174 135.2545 0002032  42.4156 317.6993 15.08838256 41461,6917.886,95.438,541.156,538.345,0.0
51134.0,STARLINK-3183,PAYLOAD,2022-10-08 00:12:05,15.08840806,0.0001506,53.2172,134.6597,43.8486,316.2626,5.5108e-05,5.89e-06,0.0,0 STARLINK-3183,1 51134U 22005AG  22281.00839367  .00000589  00000-0  55108-4 0  9999,2 51134  53.2172 134.6597 0001506  43.8486 316.2626 15.08840806 40376,6917.878000000002,95.438,540.785,538.701,0.0
51134.0,STARLINK-3183,PAYLOAD,2022-10-08 20:52:06,15.08840495,0.0001884,53.2169,130.7942,41.3518,318.7616,3.8308e-05,3.22e-06,0.0,0 STARLINK-3183,1 51134U 22005AG  22281.86951676  .00000322  00000-0  38308-4 0  9999,2 51134  53.2169 130.7942 0001884  41.3518 318.7616 15.08840495 40506,6917.879,95.438,541.047,538.441,0.0
51134.0,STARLINK-3183,PAYLOAD,2022-10-09 00:02:52,15.08833349,0.0002032999999999,53.2167,130.2007,42.3445,317.7703,6.9199e-05,8.13e-06,0.0,0 STARLINK-3183,1 51134U 22005AG  22282.00200183  .00000813  00000-0  69199-4 0  9993,2 51134  53.2167 130.2007 0002033  42.3445 317.7703 15.08833349 40526,6917.901,95.438,541.172,538.359,0.0
51134.0,STARLINK-3183,PAYLOAD,2022-10-09 20:42:53,15.08839128,0.0002025,53.2171,126.3331,42.0881,318.0266,3.7074e-05,3.02e-06,0.0,0 STARLINK-3183,1 51134U 22005AG  22282.86311873  .00000302  00000-0  37074-4 0  9996,2 51134  53.2171 126.3331 0002025  42.0881 318.0266 15.08839128 40652,6917.8830000000025,95.438,541.149,538.347,0.0
51134.0,STARLINK-3183,PAYLOAD,2022-10-10 01:29:02,15.08843879,0.0001935,53.2172,125.4406,44.8886,315.2262,6.822600000000001e-05,7.98e-06,0.0,0 STARLINK-3183,1 51134U 22005AG  22283.06183472  .00000798  00000-0  68226-4 0  9993,2 51134  53.2172 125.4406 0001935  44.8886 315.2262 15.08843879 41799,6917.869000000002,95.437,541.072,538.395,0.0
